*******************************************************************************
JPL/HORIZONS                961 Gunnie (A921 TH)           2023-Sep-04 11:09:23
Rec #:     961 (+COV) Soln.date: 2023-Aug-25_02:44:11   # obs: 5863 (1921-2023)
 
IAU76/J2000 helio. ecliptic osc. elements (au, days, deg., period=Julian yrs):
 
  EPOCH=  2457649.5 ! 2016-Sep-18.00 (TDB)         Residual RMS= .24966
   EC= .09109417100634631  QR= 2.449706091798249   TP= 2458180.9729178986
   OM= 26.63359975616233   W=  284.4212063965576   IN= 10.99200628174342
   A= 2.695225416818571    MA= 241.6161191636032   ADIST= 2.940744741838893
   PER= 4.42487            N= .222746779           ANGMOM= .028123512
   DAN= 2.61357            DDN= 2.73491            L= 311.3127848
   B= -10.6415531          MOID= 1.46468997        TP= 2018-Mar-03.4729178986
 
Asteroid physical parameters (km, seconds, rotational period in hours):
   GM= n.a.                RAD= 18.2855            ROTPER= 21.366
   H= 11.62                G= .150                 B-V= n.a.
                           ALBEDO= .036            STYP= X

ASTEROID comments: 
1: soln ref.= JPL#51, OCC=0
2: source=ORB
*******************************************************************************


*******************************************************************************
Ephemeris / API_USER Mon Sep  4 11:09:23 2023 Pasadena, USA      / Horizons
*******************************************************************************
Target body name: 961 Gunnie (A921 TH)            {source: JPL#51}
Center body name: Solar System Barycenter (0)     {source: DE441}
Center-site name: BODY CENTER
*******************************************************************************
Start time      : A.D. 2023-Aug-12 00:00:00.0000 TDB
Stop  time      : A.D. 2023-Aug-13 00:00:00.0000 TDB
Step-size       : 2880 minutes
*******************************************************************************
Center geodetic : 0.0, 0.0, 0.0                   {E-lon(deg),Lat(deg),Alt(km)}
Center cylindric: 0.0, 0.0, 0.0                   {E-lon(deg),Dxy(km),Dz(km)}
Center radii    : (undefined)
Small perturbers: Yes                             {source: SB441-N16}
Output units    : KM-S
Calendar mode   : Mixed Julian/Gregorian
Output type     : GEOMETRIC cartesian states
Output format   : 2 (position and velocity)
Reference frame : Ecliptic of J2000.0
*******************************************************************************
Initial IAU76/J2000 heliocentric ecliptic osculating elements (au, days, deg.):
  EPOCH=  2457649.5 ! 2016-Sep-18.00 (TDB)         Residual RMS= .24966        
   EC= .09109417100634631  QR= 2.449706091798249   TP= 2458180.9729178986      
   OM= 26.63359975616233   W=  284.4212063965576   IN= 10.99200628174342       
  Equivalent ICRF heliocentric cartesian coordinates (au, au/d):
   X=-2.812307928350993E+00  Y=-2.796259811609096E-01  Z= 1.050214569654282E-01
  VX= 1.377509643152166E-03 VY=-8.191688814840994E-03 VZ=-5.520077199057652E-03
Asteroid physical parameters (km, seconds, rotational period in hours):        
   GM= n.a.                RAD= 18.2855            ROTPER= 21.366              
   H= 11.62                G= .150                 B-V= n.a.                   
                           ALBEDO= .036            STYP= X                     
*******************************************************************************
JDTDB
   X     Y     Z
   VX    VY    VZ
*******************************************************************************
$$SOE
2460168.500000000 = A.D. 2023-Aug-12 00:00:00.0000 TDB 
 X = 2.846071694643265E+08 Y = 2.804497096880552E+08 Z = 2.392934189953865E+07
 VX=-1.143319787281679E+01 VY= 1.376140284335868E+01 VZ= 3.387886119588805E+00
$$EOE
*******************************************************************************
 
TIME

  Barycentric Dynamical Time ("TDB" or T_eph) output was requested. This
continuous coordinate time is equivalent to the relativistic proper time
of a clock at rest in a reference frame co-moving with the solar system
barycenter but outside the system's gravity well. It is the independent
variable in the solar system relativistic equations of motion.

  TDB runs at a uniform rate of one SI second per second and is independent
of irregularities in Earth's rotation.
 
CALENDAR SYSTEM

  Mixed calendar mode was active such that calendar dates after AD 1582-Oct-15
(if any) are in the modern Gregorian system. Dates prior to 1582-Oct-5 (if any)
are in the Julian calendar system, which is automatically extended for dates
prior to its adoption on 45-Jan-1 BC.  The Julian calendar is useful for
matching historical dates. The Gregorian calendar more accurately corresponds
to the Earth's orbital motion and seasons. A "Gregorian-only" calendar mode is
available if such physical events are the primary interest.

REFERENCE FRAME AND COORDINATES

  Ecliptic at the standard reference epoch

    Reference epoch: J2000.0
    X-Y plane: adopted Earth orbital plane at the reference epoch
               Note: IAU76 obliquity of 84381.448 arcseconds wrt ICRF X-Y plane
    X-axis   : ICRF
    Z-axis   : perpendicular to the X-Y plane in the directional (+ or -) sense
               of Earth's north pole at the reference epoch.

  Symbol meaning:

    JDTDB    Julian Day Number, Barycentric Dynamical Time
      X      X-component of position vector (km)
      Y      Y-component of position vector (km)
      Z      Z-component of position vector (km)
      VX     X-component of velocity vector (km/sec)                           
      VY     Y-component of velocity vector (km/sec)                           
      VZ     Z-component of velocity vector (km/sec)                           

ABERRATIONS AND CORRECTIONS

 Geometric state vectors have NO corrections or aberrations applied.

Computations by ...

    Solar System Dynamics Group, Horizons On-Line Ephemeris System
    4800 Oak Grove Drive, Jet Propulsion Laboratory
    Pasadena, CA  91109   USA

    General site: https://ssd.jpl.nasa.gov/
    Mailing list: https://ssd.jpl.nasa.gov/email_list.html
    System news : https://ssd.jpl.nasa.gov/horizons/news.html
    User Guide  : https://ssd.jpl.nasa.gov/horizons/manual.html
    Connect     : browser        https://ssd.jpl.nasa.gov/horizons/app.html#/x
                  API            https://ssd-api.jpl.nasa.gov/doc/horizons.html
                  command-line   telnet ssd.jpl.nasa.gov 6775
                  e-mail/batch   https://ssd.jpl.nasa.gov/ftp/ssd/hrzn_batch.txt
                  scripts        https://ssd.jpl.nasa.gov/ftp/ssd/SCRIPTS
    Author      : Jon.D.Giorgini@jpl.nasa.gov
*******************************************************************************
